[{"OBJECT_NAME":"JINJUSAT-1B","OBJECT_ID":"2025-052A","EPOCH":"2026-03-09T15:55:38.242848","MEAN_MOTION":15.30194857,"ECCENTRICITY":0.00055504,"INCLINATION":97.4113,"RA_OF_ASC_NODE":325.4613,"ARG_OF_PERICENTER":82.193,"MEAN_ANOMALY":277.9941,"EPHEMERIS_TYPE":0,"CLASSIFICATION_TYPE":"U","NORAD_CAT_ID":63210,"ELEMENT_SET_NO":999,"REV_AT_EPOCH":5486,"BSTAR":0.00068430401,"MEAN_MOTION_DOT":0.00019955,"MEAN_MOTION_DDOT":0},{"OBJECT_NAME":"STARLINK-35968","OBJECT_ID":"2025-271V","EPOCH":"2026-03-09T11:47:29.103648","MEAN_MOTION":15.30186599,"ECCENTRICITY":0.00010821,"INCLINATION":53.1577,"RA_OF_ASC_NODE":141.0485,"ARG_OF_PERICENTER":82.9488,"MEAN_ANOMALY":277.1636,"EPHEMERIS_TYPE":0,"CLASSIFICATION_TYPE":"U","NORAD_CAT_ID":66636,"ELEMENT_SET_NO":999,"REV_AT_EPOCH":1753,"BSTAR":0.0012129133,"MEAN_MOTION_DOT":0.00035722,"MEAN_MOTION_DDOT":0}]
